0 IRIDIUM 51
1 25262U 98018A   13282.27921492  .00000309  00000-0  10331-3 0  6120
2 25262 086.4007 161.9762 0002185 097.0908 263.0536 14.34221207818104
0 IRIDIUM 51
1 25262U 98018A   13282.55828837  .00000305  00000-0  10173-3 0  6131
2 25262 086.4007 161.8597 0002180 097.0548 263.0896 14.34221380818149
0 IRIDIUM 51
1 25262U 98018A   13283.53504556  .00000294  00000-0  97977-4 0  6145
2 25262 086.4006 161.4521 0002175 097.1269 263.0174 14.34221577818288
0 IRIDIUM 51
1 25262U 98018A   13284.23272907  .00000314  00000-0  10513-3 0  6159
2 25262 086.4005 161.1609 0002170 097.0482 263.0961 14.34221691818384
0 IRIDIUM 51
1 25262U 98018A   13285.20948560  .00000290  00000-0  96575-4 0  6169
2 25262 086.4003 160.7532 0002157 096.9717 263.1724 14.34222090818524
0 IRIDIUM 51
1 25262U 98018A   13286.18624179  .00000310  00000-0  10363-3 0  6178
2 25262 086.4000 160.3456 0002140 096.9455 263.1984 14.34222544818660
0 IRIDIUM 51
1 25262U 98018A   13287.23276611  .00000343  00000-0  11528-3 0  6180
2 25262 086.3998 159.9088 0002136 096.7189 263.4250 14.34223155818812
0 IRIDIUM 51
1 25262U 98018A   13288.48859461  .00000420  00000-0  14283-3 0  6196
2 25262 086.3995 159.3846 0002129 096.4291 263.7148 14.34224429818991
0 IRIDIUM 51
1 25262U 98018A   13289.25604499  .00000318  00000-0  10656-3 0  6209
2 25262 086.3994 159.0643 0002117 096.8564 263.2873 14.34225172819106
0 IRIDIUM 51
1 25262U 98018A   13289.67465408  .00000334  00000-0  11221-3 0  6218
2 25262 086.3993 158.8895 0002111 096.7254 263.4182 14.34225369819169
0 IRIDIUM 51
1 25262U 98018A   13290.72118124  .00000328  00000-0  11014-3 0  6220
2 25262 086.3989 158.4526 0002207 092.9084 267.2365 14.34219232819310
0 IRIDIUM 51
1 25262U 98018A   13291.48863448  .00000252  00000-0  82805-4 0  6234
2 25262 086.3990 158.1321 0002118 096.9529 263.1908 14.34218507819425
0 IRIDIUM 51
1 25262U 98018A   13292.18631932  .00000291  00000-0  96998-4 0  6245
2 25262 086.3989 157.8409 0002106 096.8814 263.2622 14.34218923819526
0 IRIDIUM 51
1 25262U 98018A   13293.23284612  .00000313  00000-0  10466-3 0  6252
2 25262 086.3988 157.4040 0002086 096.9215 263.2218 14.34219588819670
0 IRIDIUM 51
1 25262U 98018A   13294.48867771  .00000304  00000-0  10163-3 0  6268
2 25262 086.3988 156.8797 0002064 097.1018 263.0412 14.34220478819856
0 IRIDIUM 51
1 25262U 98018A   13295.46543519  .00000313  00000-0  10462-3 0  6271
2 25262 086.3987 156.4718 0002062 097.1198 263.0233 14.34220934819994
